[
    {
        "Altitude(m)": 707699.991532518,
        "Argument of Periapsis(deg)": 0.010251109067964361,
        "Eccentricity": 0.0,
        "Inclination(deg)": 45.0,
        "Latitude(deg)": -18.71182347040808,
        "Longitude(deg)": -166.00582181076146,
        "Mean Anomaly(deg)": 206.7434949827327,
        "RAAN(deg)": 94.99032325268763,
        "Satellite Name": "Constellation 1 430",
        "Satellite Number": 430,
        "Semi-Major Axis(m)": 7083131.272910544,
        "Time(s)": 171
    },
    {
        "Altitude(m)": 707712.8230017645,
        "Argument of Periapsis(deg)": 0.010311057074209765,
        "Eccentricity": 0.0,
        "Inclination(deg)": 45.0,
        "Latitude(deg)": -18.752426940372107,
        "Longitude(deg)": -165.96222416249918,
        "Mean Anomaly(deg)": 206.80419612298263,
        "RAAN(deg)": 94.99026666352206,
        "Satellite Name": "Constellation 1 430",
        "Satellite Number": 430,
        "Semi-Major Axis(m)": 7083131.272910544,
        "Time(s)": 172
    },
    {
        "Altitude(m)": 707725.6638974083,
        "Argument of Periapsis(deg)": 0.010371005080455171,
        "Eccentricity": 0.0,
        "Inclination(deg)": 45.0,
        "Latitude(deg)": -18.793017972412883,
        "Longitude(deg)": -165.91860382079886,
        "Mean Anomaly(deg)": 206.86489726323254,
        "RAAN(deg)": 94.99021007435648,
        "Satellite Name": "Constellation 1 430",
        "Satellite Number": 430,
        "Semi-Major Axis(m)": 7083131.272910544,
        "Time(s)": 173
    },
    {
        "Altitude(m)": 707738.514178377,
        "Argument of Periapsis(deg)": 0.010430953086700577,
        "Eccentricity": 0.0,
        "Inclination(deg)": 45.0,
        "Latitude(deg)": -18.833596532294024,
        "Longitude(deg)": -165.87496072871699,
        "Mean Anomaly(deg)": 206.92559840348238,
        "RAAN(deg)": 94.99015348519092,
        "Satellite Name": "Constellation 1 430",
        "Satellite Number": 430,
        "Semi-Major Axis(m)": 7083131.272910544,
        "Time(s)": 174
    },
    {
        "Altitude(m)": 707751.3738035532,
        "Argument of Periapsis(deg)": 0.010490901092945983,
        "Eccentricity": 0.0,
        "Inclination(deg)": 45.0,
        "Latitude(deg)": -18.87416258573467,
        "Longitude(deg)": -165.83129482928112,
        "Mean Anomaly(deg)": 206.9862995437324,
        "RAAN(deg)": 94.99009689602534,
        "Satellite Name": "Constellation 1 430",
        "Satellite Number": 430,
        "Semi-Major Axis(m)": 7083131.272910544,
        "Time(s)": 175
    },
    {
        "Altitude(m)": 707764.2427317555,
        "Argument of Periapsis(deg)": 0.010550849099191389,
        "Eccentricity": 0.0,
        "Inclination(deg)": 45.0,
        "Latitude(deg)": -18.914716098409357,
        "Longitude(deg)": -165.78760606549,
        "Mean Anomaly(deg)": 207.04700068398225,
        "RAAN(deg)": 94.99004030685977,
        "Satellite Name": "Constellation 1 430",
        "Satellite Number": 430,
        "Semi-Major Axis(m)": 7083131.272910544,
        "Time(s)": 176
    },
    {
        "Altitude(m)": 707777.1209217616,
        "Argument of Periapsis(deg)": 0.010610797105436795,
        "Eccentricity": 0.0,
        "Inclination(deg)": 45.0,
        "Latitude(deg)": -18.955257035948346,
        "Longitude(deg)": -165.74389438031287,
        "Mean Anomaly(deg)": 207.10770182423212,
        "RAAN(deg)": 94.98998371769422,
        "Satellite Name": "Constellation 1 430",
        "Satellite Number": 430,
        "Semi-Major Axis(m)": 7083131.272910544,
        "Time(s)": 177
    },
    {
        "Altitude(m)": 707790.0083322951,
        "Argument of Periapsis(deg)": 0.0106707451116822,
        "Eccentricity": 0.0,
        "Inclination(deg)": 45.0,
        "Latitude(deg)": -18.995785363936534,
        "Longitude(deg)": -165.70015988478747,
        "Mean Anomaly(deg)": 207.16840296448194,
        "RAAN(deg)": 94.98992712852863,
        "Satellite Name": "Constellation 1 430",
        "Satellite Number": 430,
        "Semi-Major Axis(m)": 7083131.272910544,
        "Time(s)": 178
    },
    {
        "Altitude(m)": 707802.9049220349,
        "Argument of Periapsis(deg)": 0.010730693117927606,
        "Eccentricity": 0.0,
        "Inclination(deg)": 45.0,
        "Latitude(deg)": -19.036301047915362,
        "Longitude(deg)": -165.65640218563095,
        "Mean Anomaly(deg)": 207.22910410473196,
        "RAAN(deg)": 94.98987053936307,
        "Satellite Name": "Constellation 1 430",
        "Satellite Number": 430,
        "Semi-Major Axis(m)": 7083131.272910544,
        "Time(s)": 179
    },
    {
        "Altitude(m)": 707815.8106496033,
        "Argument of Periapsis(deg)": 0.01079064112417301,
        "Eccentricity": 0.0,
        "Inclination(deg)": 45.0,
        "Latitude(deg)": -19.076804053379952,
        "Longitude(deg)": -165.6126213938234,
        "Mean Anomaly(deg)": 207.2898052449818,
        "RAAN(deg)": 94.98981395019749,
        "Satellite Name": "Constellation 1 430",
        "Satellite Number": 430,
        "Semi-Major Axis(m)": 7083131.272910544,
        "Time(s)": 180
    },
    {
        "Altitude(m)": 707828.7254735801,
        "Argument of Periapsis(deg)": 0.010850589130418416,
        "Eccentricity": 0.0,
        "Inclination(deg)": 45.0,
        "Latitude(deg)": -19.117294345781048,
        "Longitude(deg)": -165.5688174522184,
        "Mean Anomaly(deg)": 207.35050638523174,
        "RAAN(deg)": 94.98975736103192,
        "Satellite Name": "Constellation 1 430",
        "Satellite Number": 430,
        "Semi-Major Axis(m)": 7083131.272910544,
        "Time(s)": 181
    },
    {
        "Altitude(m)": 707841.6493524859,
        "Argument of Periapsis(deg)": 0.01091053713666382,
        "Eccentricity": 0.0,
        "Inclination(deg)": 45.0,
        "Latitude(deg)": -19.15777189052403,
        "Longitude(deg)": -165.52499030364115,
        "Mean Anomaly(deg)": 207.4112075254816,
        "RAAN(deg)": 94.98970077186634,
        "Satellite Name": "Constellation 1 430",
        "Satellite Number": 430,
        "Semi-Major Axis(m)": 7083131.272910544,
        "Time(s)": 182
    },
    {
        "Altitude(m)": 707854.5822448032,
        "Argument of Periapsis(deg)": 0.010970485142909228,
        "Eccentricity": 0.0,
        "Inclination(deg)": 45.0,
        "Latitude(deg)": -19.19823665296914,
        "Longitude(deg)": -165.48113989088785,
        "Mean Anomaly(deg)": 207.4719086657315,
        "RAAN(deg)": 94.98964418270079,
        "Satellite Name": "Constellation 1 430",
        "Satellite Number": 430,
        "Semi-Major Axis(m)": 7083131.272910544,
        "Time(s)": 183
    },
    {
        "Altitude(m)": 707867.5241089521,
        "Argument of Periapsis(deg)": 0.011030433149154634,
        "Eccentricity": 0.0,
        "Inclination(deg)": 45.0,
        "Latitude(deg)": -19.23868859843119,
        "Longitude(deg)": -165.4372661567262,
        "Mean Anomaly(deg)": 207.5326098059814,
        "RAAN(deg)": 94.98958759353522,
        "Satellite Name": "Constellation 1 430",
        "Satellite Number": 430,
        "Semi-Major Axis(m)": 7083131.272910544,
        "Time(s)": 184
    },
    {
        "Altitude(m)": 707880.4749033195,
        "Argument of Periapsis(deg)": 0.01109038115540004,
        "Eccentricity": 0.0,
        "Inclination(deg)": 45.0,
        "Latitude(deg)": -19.27912769217915,
        "Longitude(deg)": -165.39336921199234,
        "Mean Anomaly(deg)": 207.59331094623133,
        "RAAN(deg)": 94.98953100436964,
        "Satellite Name": "Constellation 1 430",
        "Satellite Number": 430,
        "Semi-Major Axis(m)": 7083131.272910544,
        "Time(s)": 185
    },
    {
        "Altitude(m)": 707893.4345862337,
        "Argument of Periapsis(deg)": 0.011150329161645444,
        "Eccentricity": 0.0,
        "Inclination(deg)": 45.0,
        "Latitude(deg)": -19.31955389943747,
        "Longitude(deg)": -165.34944866320237,
        "Mean Anomaly(deg)": 207.65401208648126,
        "RAAN(deg)": 94.98947441520407,
        "Satellite Name": "Constellation 1 430",
        "Satellite Number": 430,
        "Semi-Major Axis(m)": 7083131.272910544,
        "Time(s)": 186
    },
    {
        "Altitude(m)": 707906.4031159693,
        "Argument of Periapsis(deg)": 0.01121027716789085,
        "Eccentricity": 0.0,
        "Inclination(deg)": 45.0,
        "Latitude(deg)": -19.35996718538356,
        "Longitude(deg)": -165.30550462113567,
        "Mean Anomaly(deg)": 207.7147132267311,
        "RAAN(deg)": 94.98941782603852,
        "Satellite Name": "Constellation 1 430",
        "Satellite Number": 430,
        "Semi-Major Axis(m)": 7083131.272910544,
        "Time(s)": 187
    },
    {
        "Altitude(m)": 707919.3804507687,
        "Argument of Periapsis(deg)": 0.011270225174136258,
        "Eccentricity": 0.0,
        "Inclination(deg)": 45.0,
        "Latitude(deg)": -19.400367515149746,
        "Longitude(deg)": -165.26153702844542,
        "Mean Anomaly(deg)": 207.77541436698104,
        "RAAN(deg)": 94.98936123687294,
        "Satellite Name": "Constellation 1 430",
        "Satellite Number": 430,
        "Semi-Major Axis(m)": 7083131.272910544,
        "Time(s)": 188
    },
    {
        "Altitude(m)": 707932.3665488096,
        "Argument of Periapsis(deg)": 0.011330173180381662,
        "Eccentricity": 0.0,
        "Inclination(deg)": 45.0,
        "Latitude(deg)": -19.440754853822078,
        "Longitude(deg)": -165.2175458277571,
        "Mean Anomaly(deg)": 207.8361155072309,
        "RAAN(deg)": 94.98930464770737,
        "Satellite Name": "Constellation 1 430",
        "Satellite Number": 430,
        "Semi-Major Axis(m)": 7083131.272910544,
        "Time(s)": 189
    }
]